
# Worst residual: 2.15 km
# MJD 60002.000000 (2023 Feb 27  0:00)
1963-039A = NORAD 00674 = Vela 1A
1 00674U 63039A   23058.49919926  .00000000  00000-0  00000-0 0 18153
2 00674 043.2801 128.6919 2526115 097.6232 251.7341 00.22204038    08

# Worst residual: 6.13 km
# MJD 60003.000000 (2023 Feb 28  0:00)
1963-039A = NORAD 00674 = Vela 1A
1 00674U 63039A   23059.49919926  .00000000  00000-0  00000-0 0 18154
2 00674 043.2933 128.6696 2522015 097.6327 331.6528 00.22219271    06

# Worst residual: 10.18 km
# MJD 60004.000000 (2023 Mar  1  0:00)
1963-039A = NORAD 00674 = Vela 1A
1 00674U 63039A   23060.49919926  .00000000  00000-0  00000-0 0 18156
2 00674 043.2935 128.6597 2526290 097.5807 051.6642 00.22205708    05

# Worst residual: 2.12 km
# MJD 60005.000000 (2023 Mar  2  0:00)
1963-039A = NORAD 00674 = Vela 1A
1 00674U 63039A   23061.49919926  .00000000  00000-0  00000-0 0 18157
2 00674 043.2923 128.6343 2531751 097.7088 131.3839 00.22178305    08

# Worst residual: 10.43 km
# MJD 60006.000000 (2023 Mar  3  0:00)
1963-039A = NORAD 00674 = Vela 1A
1 00674U 63039A   23062.49919926  .00000000  00000-0  00000-0 0 18158
2 00674 043.2969 128.6265 2535844 097.4461 211.6591 00.22188914    04

# Worst residual: 6.20 km
# MJD 60007.000000 (2023 Mar  4  0:00)
1963-039A = NORAD 00674 = Vela 1A
1 00674U 63039A   23063.49919926  .00000000  00000-0  00000-0 0 18159
2 00674 043.3001 128.6072 2538801 097.0187 292.0614 00.22141716    03

# Worst residual: 12.06 km
# MJD 60008.000000 (2023 Mar  5  0:00)
1963-039A = NORAD 00674 = Vela 1A
1 00674U 63039A   23064.49919926  .00000000  00000-0  00000-0 0 18150
2 00674 043.3101 128.5932 2527492 097.2513 011.7137 00.22216224    00

# Worst residual: 5.27 km
# MJD 60009.000000 (2023 Mar  6  0:00)
1963-039A = NORAD 00674 = Vela 1A
1 00674U 63039A   23065.49919926  .00000000  00000-0  00000-0 0 18151
2 00674 043.3111 128.5737 2531165 097.4457 091.4815 00.22183436    01

# Worst residual: 5.13 km
# MJD 60010.000000 (2023 Mar  7  0:00)
1963-039A = NORAD 00674 = Vela 1A
1 00674U 63039A   23066.49919926  .00000000  00000-0  00000-0 0 18152
2 00674 043.3171 128.5540 2534335 097.4477 171.3307 00.22180275    05

# Worst residual: 12.47 km
# MJD 60011.000000 (2023 Mar  8  0:00)
1963-039A = NORAD 00674 = Vela 1A
1 00674U 63039A   23067.49919926  .00000000  00000-0  00000-0 0 18153
2 00674 043.3231 128.5331 2542044 097.1925 251.6288 00.22180923    01

# Worst residual: 11.57 km
# MJD 60012.000000 (2023 Mar  9  0:00)
1963-039A = NORAD 00674 = Vela 1A
1 00674U 63039A   23068.49919926  .00000000  00000-0  00000-0 0 18154
2 00674 043.3348 128.5118 2549352 097.1074 331.6519 00.22169883    05

# Worst residual: 6.64 km
# MJD 60013.000000 (2023 Mar 10  0:00)
1963-039A = NORAD 00674 = Vela 1A
1 00674U 63039A   23069.49919926  .00000000  00000-0  00000-0 0 18155
2 00674 043.3339 128.5160 2537562 097.0681 051.6613 00.22233720    01

# Worst residual: 7.79 km
# MJD 60014.000000 (2023 Mar 11  0:00)
1963-039A = NORAD 00674 = Vela 1A
1 00674U 63039A   23070.49919926  .00000000  00000-0  00000-0 0 18157
2 00674 043.3282 128.4865 2545158 097.2417 131.3912 00.22202222    09

# Worst residual: 3.36 km
# MJD 60015.000000 (2023 Mar 12  0:00)
1963-039A = NORAD 00674 = Vela 1A
1 00674U 63039A   23071.49919926  .00000000  00000-0  00000-0 0 18158
2 00674 043.3339 128.4468 2549037 097.3702 211.1328 00.22203148    05

# Worst residual: 10.92 km
# MJD 60016.000000 (2023 Mar 13  0:00)
1963-039A = NORAD 00674 = Vela 1A
1 00674U 63039A   23072.49919926  .00000000  00000-0  00000-0 0 18159
2 00674 043.3496 128.4146 2547107 097.4788 290.9336 00.22218759    01

# Worst residual: 12.55 km
# MJD 60017.000000 (2023 Mar 14  0:00)
1963-039A = NORAD 00674 = Vela 1A
1 00674U 63039A   23073.49919926  .00000000  00000-0  00000-0 0 18150
2 00674 043.3658 128.4107 2537005 097.3219 011.0239 00.22249668    09

# Worst residual: 6.50 km
# MJD 60018.000000 (2023 Mar 15  0:00)
1963-039A = NORAD 00674 = Vela 1A
1 00674U 63039A   23074.49919926  .00000000  00000-0  00000-0 0 18151
2 00674 043.3665 128.3937 2549048 097.3199 090.9673 00.22211968    04

# Worst residual: 6.30 km
# MJD 60019.000000 (2023 Mar 16  0:00)
1963-039A = NORAD 00674 = Vela 1A
1 00674U 63039A   23075.49919926  .00000000  00000-0  00000-0 0 18152
2 00674 043.3685 128.3593 2547533 097.3105 170.9755 00.22201944    01

# Worst residual: 5.94 km
# MJD 60020.000000 (2023 Mar 17  0:00)
1963-039A = NORAD 00674 = Vela 1A
1 00674U 63039A   23076.49919926  .00000000  00000-0  00000-0 0 18153
2 00674 043.3762 128.3256 2542390 097.0373 251.2696 00.22171689    02

# Worst residual: 13.26 km
# MJD 60021.000000 (2023 Mar 18  0:00)
1963-039A = NORAD 00674 = Vela 1A
1 00674U 63039A   23077.49919926  .00000000  00000-0  00000-0 0 18154
2 00674 043.3797 128.3049 2540840 096.9985 331.1382 00.22176387    05

# Worst residual: 14.47 km
# MJD 60022.000000 (2023 Mar 19  0:00)
1963-039A = NORAD 00674 = Vela 1A
1 00674U 63039A   23078.49919926  .00000000  00000-0  00000-0 0 18155
2 00674 043.3836 128.2905 2532503 097.0953 051.0431 00.22218143    03

# Worst residual: 15.00 km
# MJD 60023.000000 (2023 Mar 20  0:00)
1963-039A = NORAD 00674 = Vela 1A
1 00674U 63039A   23079.49919926  .00000000  00000-0  00000-0 0 18156
2 00674 043.3695 128.2460 2551075 097.4020 130.4215 00.22167409    06

# Worst residual: 8.37 km
# MJD 60024.000000 (2023 Mar 21  0:00)
1963-039A = NORAD 00674 = Vela 1A
1 00674U 63039A   23080.49919926  .00000000  00000-0  00000-0 0 18158
2 00674 043.3721 128.2021 2565115 097.2284 210.5668 00.22201625    00

# Worst residual: 4.17 km
# MJD 60025.000000 (2023 Mar 22  0:00)
1963-039A = NORAD 00674 = Vela 1A
1 00674U 63039A   23081.49919926  .00000000  00000-0  00000-0 0 18159
2 00674 043.3742 128.1864 2568598 096.9530 290.8557 00.22175466    06

# Worst residual: 12.61 km
# MJD 60026.000000 (2023 Mar 23  0:00)
1963-039A = NORAD 00674 = Vela 1A
1 00674U 63039A   23082.49919926  .00000000  00000-0  00000-0 0 18150
2 00674 043.3934 128.1918 2560262 096.8928 010.7618 00.22215533    06

# Worst residual: 7.39 km
# MJD 60027.000000 (2023 Mar 24  0:00)
1963-039A = NORAD 00674 = Vela 1A
1 00674U 63039A   23083.49919926  .00000000  00000-0  00000-0 0 18151
2 00674 043.3871 128.1794 2562311 096.7416 090.8918 00.22229300    05

# Worst residual: 2.13 km
# MJD 60028.000000 (2023 Mar 25  0:00)
1963-039A = NORAD 00674 = Vela 1A
1 00674U 63039A   23084.49919926  .00000000  00000-0  00000-0 0 18152
2 00674 043.3897 128.1483 2564147 096.8626 170.7253 00.22212669    01

# Worst residual: 2.05 km
# MJD 60029.000000 (2023 Mar 26  0:00)
1963-039A = NORAD 00674 = Vela 1A
1 00674U 63039A   23085.49919926  .00000000  00000-0  00000-0 0 18153
2 00674 043.4000 128.1120 2565336 096.8562 250.7246 00.22212700    03
